NORAD_CAT_ID,OBJECT_NAME,OBJECT_TYPE,EPOCH,MEAN_MOTION,ECCENTRICITY,INCLINATION,RA_OF_ASC_NODE,ARG_OF_PERICENTER,MEAN_ANOMALY,BSTAR,MEAN_MOTION_DOT,MEAN_MOTION_DDOT,TLE_LINE0,TLE_LINE1,TLE_LINE2,SEMIMAJOR_AXIS,PERIOD,APOGEE,PERIGEE,DECAYED
55631.0,STARLINK-5558,PAYLOAD,2023-03-16 14:00:01,15.58758891,0.00033,70.0012,74.6605,273.7904,179.156,-0.017931,-0.01242769,0.0,0 STARLINK-5558,1 55631U 23021D   23075.58334491 -.01242769  00000-0 -17931-1 0  9997,2 55631  70.0012  74.6605 0003300 273.7904 179.1560 15.58758891  4750,6769.385,92.381,393.484,389.016,0.0
55631.0,STARLINK-5558,PAYLOAD,2023-03-16 22:00:00,15.57878505,0.000323,70.0015,73.7398,265.4563,256.8797,-0.017709,-0.011926,0.0,0 STARLINK-5558,1 55631U 23021D   23075.91667824 -.01192600  00000-0 -17709-1 0  9994,2 55631  70.0015  73.7398 0003230 265.4563 256.8797 15.57878505  1300,6771.935,92.433,395.987,391.613,0.0
55631.0,STARLINK-5558,PAYLOAD,2023-03-17 08:00:01,15.56779588,0.0003428,70.0013,72.59,270.5792,67.0544,-0.017912,-0.01160945,0.0,0 STARLINK-5558,1 55631U 23021D   23076.33334491 -.01160945  00000-0 -17912-1 0  9995,2 55631  70.0013  72.5900 0003428 270.5792  67.0544 15.56779588  4871,6775.122,92.499,399.309,394.664,0.0
55631.0,STARLINK-5558,PAYLOAD,2023-03-17 14:00:01,15.56179109,0.0003315,70.0008,71.901,269.1107,28.9079,-0.019694,-0.01239066,0.0,0 STARLINK-5558,1 55631U 23021D   23076.58334491 -.01239066  00000-0 -19694-1 0  9992,2 55631  70.0008  71.9010 0003315 269.1107  28.9079 15.56179109  1306,6776.864,92.534,400.976,396.483,0.0
55631.0,STARLINK-5558,PAYLOAD,2023-03-17 22:00:00,15.55301622,0.0003517,70.001,70.9833,265.4375,98.8803,-0.019513,-0.01193484,0.0,0 STARLINK-5558,1 55631U 23021D   23076.91667824 -.01193484  00000-0 -19513-1 0  9991,2 55631  70.0010  70.9833 0003517 265.4375  98.8803 15.55301622  4963,6779.413,92.587,403.662,398.894,0.0
55631.0,STARLINK-5558,PAYLOAD,2023-03-18 14:00:01,15.53599335,0.0003238,70.0007,69.1515,275.3074,218.5139,-0.021563,-0.01253513,0.0,0 STARLINK-5558,1 55631U 23021D   23077.58334491 -.01253513  00000-0 -21563-1 0  9994,2 55631  70.0007  69.1515 0003238 275.3074 218.5139 15.53599335  5065,6784.364,92.688,408.426,404.032,0.0
55631.0,STARLINK-5558,PAYLOAD,2023-03-18 22:00:00,15.52727504,0.0003336,70.0009,68.2378,263.8685,293.1575,-0.021451,-0.01193799,0.0,0 STARLINK-5558,1 55631U 23021D   23077.91667824 -.01193799  00000-0 -21451-1 0  9995,2 55631  70.0009  68.2378 0003336 263.8685 293.1575 15.52727504  1309,6786.904,92.74,411.033,406.504,0.0
55631.0,STARLINK-5558,PAYLOAD,2023-03-19 06:00:02,15.51636935,0.0003165,70.0008,67.3248,273.5312,345.7891,-0.010531,-0.00583768,0.0,0 STARLINK-5558,1 55631U 23021D   23078.25002315 -.00583768  00000-0 -10531-1 0  9996,2 55631  70.0008  67.3248 0003165 273.5312 345.7891 15.51636935  5168,6790.083,92.805,414.097,409.799,0.0
55631.0,STARLINK-5558,PAYLOAD,2023-03-19 14:00:01,15.51233967,0.0003101,70.0006,66.4131,272.0166,48.3734,-0.00042354,-0.00024973,0.0,0 STARLINK-5558,1 55631U 23021D   23078.58334491 -.00024973  00000-0 -42354-3 0  9993,2 55631  70.0006  66.4131 0003101 272.0166  48.3734 15.51233967  1300,6791.259,92.829,415.23,411.018,0.0
55631.0,STARLINK-5558,PAYLOAD,2023-03-19 16:00:00,15.51224044,0.0003101,70.0008,66.1853,269.8954,155.7256,-6.2927e-05,-3.859e-05,0.0,0 STARLINK-5558,1 55631U 23021D   23078.66667824 -.00003859  00000-0 -62927-4 0  9990,2 55631  70.0008  66.1853 0003101 269.8954 155.7256 15.51224044  5233,6791.288,92.83,415.259,411.047,0.0
55631.0,STARLINK-5558,PAYLOAD,2023-03-19 22:00:00,15.51229335,0.0003126,70.001,65.5019,266.825,114.4761,0.00039745,0.00023253,0.0,0 STARLINK-5558,1 55631U 23021D   23078.91667824  .00023253  00000-0  39745-3 0  9997,2 55631  70.0010  65.5019 0003126 266.8250 114.4761 15.51229335  1301,6791.273,92.83,415.261,411.015,0.0
55631.0,STARLINK-5558,PAYLOAD,2023-03-20 14:00:01,15.51246489,0.0003172,70.0007,63.6788,273.8196,229.3164,-0.0010513,-0.00061488,0.0,0 STARLINK-5558,1 55631U 23021D   23079.58334491 -.00061488  00000-0 -10513-2 0  9997,2 55631  70.0007  63.6788 0003172 273.8196 229.3164 15.51246489  1309,6791.223,92.829,415.242,410.933,0.0
55631.0,STARLINK-5558,PAYLOAD,2023-03-20 22:00:01,15.51223743,0.0003179,70.001,62.7676,266.6704,297.44,0.00042743,0.00025021,0.0,0 STARLINK-5558,1 55631U 23021D   23079.91668981  .00025021  00000-0  42743-3 0  9990,2 55631  70.0010  62.7676 0003179 266.6704 297.4400 15.51223743  1308,6791.289,92.83,415.313,410.995,0.0
55631.0,STARLINK-5558,PAYLOAD,2023-03-21 00:00:02,15.51259853,0.0003235,70.0014,62.5396,267.7764,41.5533,-0.0007547,-0.00044304,0.0,0 STARLINK-5558,1 55631U 23021D   23080.00002315 -.00044304  00000-0 -75470-3 0  9995,2 55631  70.0014  62.5396 0003235 267.7764  41.5533 15.51259853  5434,6791.184,92.828,415.246,410.852,0.0
55631.0,STARLINK-5558,PAYLOAD,2023-03-21 14:00:01,15.51236855,0.000318,70.0012,60.9445,272.8702,53.0729,-0.0006557,-0.0003851,0.0,0 STARLINK-5558,1 55631U 23021D   23080.58335648 -.00038510  00000-0 -65570-3 0  9998,2 55631  70.0012  60.9445 0003180 272.8702  53.0729 15.51236855  1301,6791.251,92.829,415.275,410.956,0.0
55631.0,STARLINK-5558,PAYLOAD,2023-03-21 22:00:00,15.51232082,0.0003201,70.0015,60.0334,267.88,118.9042,0.00032016,0.0001869,0.0,0 STARLINK-5558,1 55631U 23021D   23080.91667824  .00018690  00000-0  32016-3 0  9993,2 55631  70.0015  60.0334 0003201 267.8800 118.9042 15.51232082  1306,6791.265,92.829,415.304,410.956,0.0
55631.0,STARLINK-5558,PAYLOAD,2023-03-22 14:00:01,15.51259011,0.0003187,70.0014,58.2106,272.4032,236.2235,-0.0015091,-0.00087939,0.0,0 STARLINK-5558,1 55631U 23021D   23081.58334491 -.00087939  00000-0 -15091-2 0  9995,2 55631  70.0014  58.2106 0003187 272.4032 236.2235 15.51259011  5687,6791.186,92.828,415.215,410.887,0.0
55631.0,STARLINK-5558,PAYLOAD,2023-03-22 22:00:00,15.51219093,0.0003228,70.002,57.2996,264.9056,304.6306,0.00051938,0.00030455,0.0,0 STARLINK-5558,1 55631U 23021D   23081.91667824  .00030455  00000-0  51938-3 0  9991,2 55631  70.0020  57.2996 0003228 264.9056 304.6306 15.51219093  5739,6791.303,92.83,415.36,410.975,0.0
55631.0,STARLINK-5558,PAYLOAD,2023-03-23 01:44:34,15.51222108,0.0003251,69.999,56.8734,270.1497,89.9317,6.7223e-06,2.3e-06,0.0,0 STARLINK-5558,1 55631U 23021D   23082.07261576  .00000230  00000-0  67223-5 0  9997,2 55631  69.9990  56.8734 0003251 270.1497  89.9317 15.51222108  5760,6791.294,92.83,415.367,410.951,0.0
55631.0,STARLINK-5558,PAYLOAD,2023-03-23 07:55:59,15.51227346,0.000326,69.9987,56.168,270.2796,89.8017,-1.5014e-06,-2.53e-06,0.0,0 STARLINK-5558,1 55631U 23021D   23082.33055132 -.00000253  00000-0 -15014-5 0  9993,2 55631  69.9987  56.1680 0003260 270.2796  89.8017 15.51227346  6106,6791.278,92.83,415.357,410.93,0.0
55631.0,STARLINK-5558,PAYLOAD,2023-03-23 15:40:16,15.51223687,0.0003226,69.9987,55.2885,271.7127,88.369,1.6831e-05,8.24e-06,0.0,0 STARLINK-5558,1 55631U 23021D   23082.65297389  .00000824  00000-0  16831-4 0  9999,2 55631  69.9987  55.2885 0003226 271.7127  88.3690 15.51223687  6159,6791.289,92.83,415.345,410.963,0.0
55631.0,STARLINK-5558,PAYLOAD,2023-03-24 04:03:06,15.51253413,0.0003342,70.0,53.8789,267.2169,92.8635,5.633e-05,3.149e-05,0.0,0 STARLINK-5558,1 55631U 23021D   23083.16882673  .00003149  00000-0  56330-4 0  9993,2 55631  70.0000  53.8789 0003342 267.2169  92.8635 15.51253413  5934,6791.202,92.828,415.337,410.798,0.0
55631.0,STARLINK-5558,PAYLOAD,2023-03-24 07:08:51,15.51226224,0.0002648,70.0006,53.5267,268.43,91.6583,-3.9284e-06,-3.95e-06,0.0,0 STARLINK-5558,1 55631U 23021D   23083.29781738 -.00000395  00000-0 -39284-5 0  9999,2 55631  70.0006  53.5267 0002648 268.4300  91.6583 15.51226224  5957,6791.282,92.83,414.945,411.348,0.0
55631.0,STARLINK-5558,PAYLOAD,2023-03-24 22:37:26,15.51212257,0.0002591,70.0001,51.7642,269.6158,90.4732,-8.2876e-06,-6.51e-06,0.0,0 STARLINK-5558,1 55631U 23021D   23083.94267286 -.00000651  00000-0 -82876-5 0  9998,2 55631  70.0001  51.7642 0002591 269.6158  90.4732 15.51212257  6359,6791.323,92.831,414.947,411.428,0.0
55631.0,STARLINK-5558,PAYLOAD,2023-03-25 01:43:10,15.51205006,0.0003484,69.9998,51.4118,269.6634,90.4153,-2.0818e-05,-1.387e-05,0.0,0 STARLINK-5558,1 55631U 23021D   23084.07164760 -.00001387  00000-0 -20818-4 0  9990,2 55631  69.9998  51.4118 0003484 269.6634  90.4153 15.51205006  6077,6791.344,92.831,415.575,410.843,0.0
55631.0,STARLINK-5558,PAYLOAD,2023-03-25 07:54:36,15.51201232,0.0003564,70.0002,50.7068,270.5111,89.5667,-2.5367e-05,-1.653e-05,0.0,0 STARLINK-5558,1 55631U 23021D   23084.32959124 -.00001653  00000-0 -25367-4 0  9994,2 55631  70.0002  50.7068 0003564 270.5111  89.5667 15.51201232  6416,6791.355,92.831,415.64,410.799,0.0
55631.0,STARLINK-5558,PAYLOAD,2023-03-26 04:01:42,15.51244043,0.0003308,70.0011,48.414,267.2228,92.858,4.5765e-05,2.526e-05,0.0,0 STARLINK-5558,1 55631U 23021D   23085.16785730  .00002526  00000-0  45765-4 0  9999,2 55631  70.0011  48.4140 0003308 267.2228  92.8580 15.51244043  6248,6791.23,92.829,415.341,410.848,0.0
55631.0,STARLINK-5558,PAYLOAD,2023-03-26 07:07:28,15.51211419,0.0004346,70.0001,48.061,272.6926,87.3763,-7.7546e-05,-4.716e-05,0.0,0 STARLINK-5558,1 55631U 23021D   23085.29685805 -.00004716  00000-0 -77546-4 0  9992,2 55631  70.0001  48.0610 0004346 272.6926  87.3763 15.51211419  6268,6791.325,92.831,416.141,410.238,0.0
55631.0,STARLINK-5558,PAYLOAD,2023-03-27 04:49:46,15.49687083,0.0003123,69.9992,45.5977,280.437,79.6464,-0.003202,-0.00174411,0.0,0 STARLINK-5558,1 55631U 23021D   23086.20123152 -.00174411  00000-0 -32020-2 0  9992,2 55631  69.9992  45.5977 0003123 280.4370  79.6464 15.49687083  6403,6795.778,92.922,419.765,415.52,0.0
55631.0,STARLINK-5558,PAYLOAD,2023-03-27 14:00:01,15.4756754,0.000332,70.0022,44.5525,266.8027,66.2317,-0.025263,-0.0119022,0.0,0 STARLINK-5558,1 55631U 23021D   23086.58334491 -.01190220  00000-0 -25263-1 0  9990,2 55631  70.0022  44.5525 0003320 266.8027  66.2317 15.47567540  6462,6801.981,93.049,426.105,421.588,0.0
